{"type": "FeatureCollection", "features": [ {"type": "Feature", "properties": {"norad_id": 30295, "name": "FENGYUN 1C DEB", "group": "fengyun-1c-debris", "lat": -60.387981789393756, "lon": -174.69708222657758, "alt_km": 881.4083082721645, "timestamp": "2025-12-24T11:33:00.292120+00:00", "meta": {"OBJECT_NAME": "FENGYUN 1C DEB", "OBJECT_ID": "1999-025ZG", "EPOCH": "2025-12-24T00:27:02.707776", "MEAN_MOTION": 14.25052813, "ECCENTRICITY": 0.0094224, "INCLINATION": 98.5074, "RA_OF_ASC_NODE": 20.1237, "ARG_OF_PERICENTER": 49.8681, "MEAN_ANOMALY": 340.6273, "EPHEMERIS_TYPE": 0, "CLASSIFICATION_TYPE": "U", "NORAD_CAT_ID": 30295, "ELEMENT_SET_NO": 999, "REV_AT_EPOCH": 98337, "BSTAR": 0.00015197, "MEAN_MOTION_DOT": 3.31e-06, "MEAN_MOTION_DDOT": 0}, "tle": {"line1": "1 30295U 99025ZG  25358.01878134  .00000331  00000+0  15197-3 0  9991", "line2": "2 30295  98.5074  20.1237 0094224  49.8681 340.6273 14.25052813983372"}}, "geometry": {"type": "Point", "coordinates": [-174.69708222657758, -60.387981789393756]}}, {"type": "Feature", "properties": {"norad_id": 30297, "name": "FENGYUN 1C DEB", "group": "fengyun-1c-debris", "lat": 44.546243542364955, "lon": -58.732549173655464, "alt_km": 591.6258647801178, "timestamp": "2025-12-24T11:33:00.292131+00:00", "meta": {"OBJECT_NAME": "FENGYUN 1C DEB", "OBJECT_ID": "1999-025ZJ", "EPOCH": "2025-12-23T15:52:04.437408", "MEAN_MOTION": 14.21916416, "ECCENTRICITY": 0.03797141, "INCLINATION": 98.8136, "RA_OF_ASC_NODE": 309.2301, "ARG_OF_PERICENTER": 84.1311, "MEAN_ANOMALY": 88.0891, "EPHEMERIS_TYPE": 0, "CLASSIFICATION_TYPE": "U", "NORAD_CAT_ID": 30297, "ELEMENT_SET_NO": 999, "REV_AT_EPOCH": 95307, "BSTAR": 0.0015201832, "MEAN_MOTION_DOT": 6.994e-05, "MEAN_MOTION_DDOT": 0}, "tle": {"line1": "1 30297U 99025ZJ  25357.66116247  .00006994  00000+0  15202-2 0  9990", "line2": "2 30297  98.8136 309.2301 0379714  84.1311  88.0891 14.21916416953078"}}, "geometry": {"type": "Point", "coordinates": [-58.732549173655464, 44.546243542364955]}}, {"type": "Feature", "properties": {"norad_id": 30298, "name": "FENGYUN 1C DEB", "group": "fengyun-1c-debris", "lat": 31.407844236659212, "lon": 84.06522823101963, "alt_km": 807.8758202470699, "timestamp": "2025-12-24T11:33:00.292141+00:00", "meta": {"OBJECT_NAME": "FENGYUN 1C DEB", "OBJECT_ID": "1999-025ZK", "EPOCH": "2025-12-23T05:15:10.766304", "MEAN_MOTION": 14.20012659, "ECCENTRICITY": 0.00475084, "INCLINATION": 99.0012, "RA_OF_ASC_NODE": 88.3356, "ARG_OF_PERICENTER": 98.7118, "MEAN_ANOMALY": 323.9573, "EPHEMERIS_TYPE": 0, "CLASSIFICATION_TYPE": "U", "NORAD_CAT_ID": 30298, "ELEMENT_SET_NO": 999, "REV_AT_EPOCH": 96983, "BSTAR": 0.0018692936, "MEAN_MOTION_DOT": 3.978e-05, "MEAN_MOTION_DDOT": 0}, "tle": {"line1": "1 30298U 99025ZK  25357.21887461  .00003978  00000+0  18693-2 0  9991", "line2": "2 30298  99.0012  88.3356 0047508  98.7118 323.9573 14.20012659969833"}}, "geometry": {"type": "Point", "coordinates": [84.06522823101963, 31.407844236659212]}}, {"type": "Feature", "properties": {"norad_id": 30299, "name": "FENGYUN 1C DEB", "group": "fengyun-1c-debris", "lat": 78.0319160478825, "lon": -60.13622064037334, "alt_km": 899.8354167401094, "timestamp": "2025-12-24T11:33:00.292151+00:00", "meta": {"OBJECT_NAME": "FENGYUN 1C DEB", "OBJECT_ID": "1999-025ZL", "EPOCH": "2025-12-23T11:18:11.262816", "MEAN_MOTION": 14.07797987, "ECCENTRICITY": 0.01031259, "INCLINATION": 99.093, "RA_OF_ASC_NODE": 69.7764, "ARG_OF_PERICENTER": 337.5048, "MEAN_ANOMALY": 41.8846, "EPHEMERIS_TYPE": 0, "CLASSIFICATION_TYPE": "U", "NORAD_CAT_ID": 30299, "ELEMENT_SET_NO": 999, "REV_AT_EPOCH": 96441, "BSTAR": 0.0013100983, "MEAN_MOTION_DOT": 2.284e-05, "MEAN_MOTION_DDOT": 0}, "tle": {"line1": "1 30299U 99025ZL  25357.47096369  .00002284  00000+0  13101-2 0  9997", "line2": "2 30299  99.0930  69.7764 0103125 337.5048  41.8846 14.07797987964410"}}, "geometry": {"type": "Point", "coordinates": [-60.13622064037334, 78.0319160478825]}}, {"type": "Feature", "properties": {"norad_id": 30300, "name": "FENGYUN 1C DEB", "group": "fengyun-1c-debris", "lat": -2.6913130887681325, "lon": 68.63728252221668, "alt_km": 811.6648200039772, "timestamp": "2025-12-24T11:33:00.292161+00:00", "meta": {"OBJECT_NAME": "FENGYUN 1C DEB", "OBJECT_ID": "1999-025ZM", "EPOCH": "2025-12-22T16:31:21.679104", "MEAN_MOTION": 14.26932196, "ECCENTRICITY": 0.00761124, "INCLINATION": 99.04, "RA_OF_ASC_NODE": 66.3568, "ARG_OF_PERICENTER": 265.3319, "MEAN_ANOMALY": 246.7293, "EPHEMERIS_TYPE": 0, "CLASSIFICATION_TYPE": "U", "NORAD_CAT_ID": 30300, "ELEMENT_SET_NO": 999, "REV_AT_EPOCH": 97126, "BSTAR": 0.0021539123, "MEAN_MOTION_DOT": 5.352e-05, "MEAN_MOTION_DDOT": 0}, "tle": {"line1": "1 30300U 99025ZM  25356.68844536  .00005352  00000+0  21539-2 0  9992", "line2": "2 30300  99.0400  66.3568 0076112 265.3319 246.7293 14.26932196971261"}}, "geometry": {"type": "Point", "coordinates": [68.63728252221668, -2.6913130887681325]}}, {"type": "Feature", "properties": {"norad_id": 30301, "name": "FENGYUN 1C DEB", "group": "fengyun-1c-debris", "lat": -4.088644478992323, "lon": -30.668388191356655, "alt_km": 701.065069633355, "timestamp": "2025-12-24T11:33:00.292172+00:00", "meta": {"OBJECT_NAME": "FENGYUN 1C DEB", "OBJECT_ID": "1999-025ZN", "EPOCH": "2025-12-23T03:33:44.233632", "MEAN_MOTION": 14.53317152, "ECCENTRICITY": 0.00692984, "INCLINATION": 98.6348, "RA_OF_ASC_NODE": 148.5812, "ARG_OF_PERICENTER": 258.1075, "MEAN_ANOMALY": 157.3265, "EPHEMERIS_TYPE": 0, "CLASSIFICATION_TYPE": "U", "NORAD_CAT_ID": 30301, "ELEMENT_SET_NO": 999, "REV_AT_EPOCH": 97368, "BSTAR": 0.0046150817, "MEAN_MOTION_DOT": 0.00019792, "MEAN_MOTION_DDOT": 0}, "tle": {"line1": "1 30301U 99025ZN  25357.14842863  .00019792  00000+0  46151-2 0  9996", "line2": "2 30301  98.6348 148.5812 0069298 258.1075 157.3265 14.53317152973682"}}, "geometry": {"type": "Point", "coordinates": [-30.668388191356655, -4.088644478992323]}}, {"type": "Feature", "properties": {"norad_id": 30302, "name": "FENGYUN 1C DEB", "group": "fengyun-1c-debris", "lat": 27.321484363465643, "lon": -98.80067719819753, "alt_km": 805.2507848026271, "timestamp": "2025-12-24T11:33:00.292182+00:00", "meta": {"OBJECT_NAME": "FENGYUN 1C DEB", "OBJECT_ID": "1999-025ZP", "EPOCH": "2025-12-22T16:55:49.257408", "MEAN_MOTION": 14.12877034, "ECCENTRICITY": 0.01057335, "INCLINATION": 98.5539, "RA_OF_ASC_NODE": 263.962, "ARG_OF_PERICENTER": 89.0199, "MEAN_ANOMALY": 272.3086, "EPHEMERIS_TYPE": 0, "CLASSIFICATION_TYPE": "U", "NORAD_CAT_ID": 30302, "ELEMENT_SET_NO": 999, "REV_AT_EPOCH": 96184, "BSTAR": 0.0018824994, "MEAN_MOTION_DOT": 3.654e-05, "MEAN_MOTION_DDOT": 0}, "tle": {"line1": "1 30302U 99025ZP  25356.70543122  .00003654  00000+0  18825-2 0  9991", "line2": "2 30302  98.5539 263.9620 0105733  89.0199 272.3086 14.12877034961845"}}, "geometry": {"type": "Point", "coordinates": [-98.80067719819753, 27.321484363465643]}}, {"type": "Feature", "properties": {"norad_id": 30303, "name": "FENGYUN 1C DEB", "group": "fengyun-1c-debris", "lat": 16.461776138552196, "lon": -101.18655766195435, "alt_km": 801.0136461462353, "timestamp": "2025-12-24T11:33:00.292192+00:00", "meta": {"OBJECT_NAME": "FENGYUN 1C DEB", "OBJECT_ID": "1999-025ZQ", "EPOCH": "2025-12-23T16:15:16.846848", "MEAN_MOTION": 14.25944495, "ECCENTRICITY": 0.00774322, "INCLINATION": 99.0184, "RA_OF_ASC_NODE": 75.2966, "ARG_OF_PERICENTER": 251.0037, "MEAN_ANOMALY": 108.274, "EPHEMERIS_TYPE": 0, "CLASSIFICATION_TYPE": "U", "NORAD_CAT_ID": 30303, "ELEMENT_SET_NO": 999, "REV_AT_EPOCH": 97191, "BSTAR": 0.0024536428, "MEAN_MOTION_DOT": 5.993e-05, "MEAN_MOTION_DDOT": 0}, "tle": {"line1": "1 30303U 99025ZQ  25357.67727832  .00005993  00000+0  24536-2 0  9995", "line2": "2 30303  99.0184  75.2966 0077432 251.0037 108.2740 14.25944495971914"}}, "geometry": {"type": "Point", "coordinates": [-101.18655766195435, 16.461776138552196]}}, {"type": "Feature", "properties": {"norad_id": 30304, "name": "FENGYUN 1C DEB", "group": "fengyun-1c-debris", "lat": -62.119425656391805, "lon": -126.43184340063624, "alt_km": 882.4983777609868, "timestamp": "2025-12-24T11:33:00.292203+00:00", "meta": {"OBJECT_NAME": "FENGYUN 1C DEB", "OBJECT_ID": "1999-025ZR", "EPOCH": "2025-12-23T15:44:28.497696", "MEAN_MOTION": 14.15546458, "ECCENTRICITY": 0.00731313, "INCLINATION": 99.0323, "RA_OF_ASC_NODE": 70.2297, "ARG_OF_PERICENTER": 17.518, "MEAN_ANOMALY": 342.8491, "EPHEMERIS_TYPE": 0, "CLASSIFICATION_TYPE": "U", "NORAD_CAT_ID": 30304, "ELEMENT_SET_NO": 999, "REV_AT_EPOCH": 96973, "BSTAR": 0.0012465796, "MEAN_MOTION_DOT": 2.456e-05, "MEAN_MOTION_DDOT": 0}, "tle": {"line1": "1 30304U 99025ZR  25357.65588539  .00002456  00000+0  12466-2 0  9993", "line2": "2 30304  99.0323  70.2297 0073131  17.5180 342.8491 14.15546458969730"}}, "geometry": {"type": "Point", "coordinates": [-126.43184340063624, -62.119425656391805]}}, {"type": "Feature", "properties": {"norad_id": 30305, "name": "FENGYUN 1C DEB", "group": "fengyun-1c-debris", "lat": 18.762125666211446, "lon": 120.00147887838779, "alt_km": 1031.348555447039, "timestamp": "2025-12-24T11:33:00.292213+00:00", "meta": {"OBJECT_NAME": "FENGYUN 1C DEB", "OBJECT_ID": "1999-025ZS", "EPOCH": "2025-12-24T02:32:09.875040", "MEAN_MOTION": 13.60236742, "ECCENTRICITY": 0.0265855, "INCLINATION": 98.5889, "RA_OF_ASC_NODE": 296.7286, "ARG_OF_PERICENTER": 71.4201, "MEAN_ANOMALY": 48.2516, "EPHEMERIS_TYPE": 0, "CLASSIFICATION_TYPE": "U", "NORAD_CAT_ID": 30305, "ELEMENT_SET_NO": 999, "REV_AT_EPOCH": 93928, "BSTAR": 0.00034351, "MEAN_MOTION_DOT": 2.9e-06, "MEAN_MOTION_DDOT": 0}, "tle": {"line1": "1 30305U 99025ZS  25358.10566985  .00000290  00000+0  34351-3 0  9998", "line2": "2 30305  98.5889 296.7286 0265855  71.4201  48.2516 13.60236742939287"}}, "geometry": {"type": "Point", "coordinates": [120.00147887838779, 18.762125666211446]}}]}